H1 CPF  1  DLR 2022 04 11 10  6012 technosat            
H2  1704205 6203    42829 2022 04 11 00 00 00 2022 04 18 00 00 00    60 1 1  0 0 0
H9
10 0 59686  36000.000000  0      -5570566.419       3595017.880      -2139531.739
10 0 59686  36060.000000  0      -5393863.540       3588068.837      -2562939.349
10 0 59686  36120.000000  0      -5194506.465       3564314.891      -2975439.672
10 0 59686  36180.000000  0      -4973494.798       3523669.241      -3375282.892
10 0 59686  36240.000000  0      -4731919.970       3466126.045      -3760775.184
10 0 59686  36300.000000  0      -4470959.583       3391761.002      -4130285.890
10 0 59686  36360.000000  0      -4191871.408       3300731.549      -4482254.414
10 0 59686  36420.000000  0      -3895986.987       3193276.634      -4815196.775
10 0 59686  36480.000000  0      -3584704.957       3069716.062      -5127711.651
10 0 59686  36540.000000  0      -3259484.255       2930449.479      -5418486.019
10 0 59686  36600.000000  0      -2921837.136       2775955.013      -5686300.482
10 0 59686  36660.000000  0      -2573321.932       2606787.523      -5930034.183
10 0 59686  36720.000000  0      -2215535.660       2423576.455      -6148669.228
10 0 59686  36780.000000  0      -1850106.536       2227023.309      -6341294.583
10 0 59686  36840.000000  0      -1478686.504       2017898.802      -6507109.460
10 0 59686  36900.000000  0      -1102943.826       1797039.790      -6645426.294
10 0 59686  36960.000000  0       -724555.601       1565345.829      -6755673.363
10 0 59686  37020.000000  0       -345200.288       1323775.401      -6837396.780
10 0 59686  37080.000000  0         33449.529       1073341.966      -6890262.034
10 0 59686  37140.000000  0        409734.350        815109.756      -6914055.269
10 0 59686  37200.000000  0        782014.986        550189.275      -6908684.081
10 0 59686  37260.000000  0       1148679.652        279732.524      -6874177.721
10 0 59686  37320.000000  0       1508150.804          4928.040      -6810686.786
10 0 59686  37380.000000  0       1858891.755       -273004.244      -6718482.496
10 0 59686  37440.000000  0       2199413.067       -552818.278      -6597955.605
10 0 59686  37500.000000  0       2528278.836       -833247.408      -6449614.895
10 0 59686  37560.000000  0       2844112.700      -1113010.021      -6274085.050
10 0 59686  37620.000000  0       3145603.463      -1390815.229      -6072104.158
10 0 59686  37680.000000  0       3431510.501      -1665368.681      -5844520.914
10 0 59686  37740.000000  0       3700668.960      -1935378.562      -5592291.350
10 0 59686  37800.000000  0       3951994.605      -2199561.641      -5316474.995
10 0 59686  37860.000000  0       4184488.233      -2456649.340      -5018230.637
10 0 59686  37920.000000  0       4397239.740      -2705393.807      -4698811.667
10 0 59686  37980.000000  0       4589431.747      -2944573.927      -4359561.028
10 0 59686  38040.000000  0       4760342.874      -3173001.283      -4001905.809
10 0 59686  38100.000000  0       4909350.606      -3389526.051      -3627351.442
10 0 59686  38160.000000  0       5035933.721      -3593042.783      -3237475.534
10 0 59686  38220.000000  0       5139674.284      -3782496.075      -2833921.331
10 0 59686  38280.000000  0       5220259.101      -3956886.024      -2418390.810
10 0 59686  38340.000000  0       5277480.682      -4115273.431      -1992637.565
10 0 59686  38400.000000  0       5311237.774      -4256784.844      -1558459.428
10 0 59686  38460.000000  0       5321535.365      -4380617.304      -1117690.788
10 0 59686  38520.000000  0       5308484.137      -4486042.765       -672194.765
10 0 59686  38580.000000  0       5272299.461      -4572412.240       -223855.251
10 0 59686  38640.000000  0       5213299.858      -4639159.576        225431.249
10 0 59686  38700.000000  0       5131904.942      -4685804.761        673763.803
10 0 59686  38760.000000  0       5028632.912      -4711956.869       1119245.262
10 0 59686  38820.000000  0       4904097.532      -4717316.573       1559990.473
10 0 59686  38880.000000  0       4759004.685      -4701678.210       1994134.393
10 0 59686  38940.000000  0       4594148.516      -4664931.393       2419840.098
10 0 59686  39000.000000  0       4410407.191      -4607062.172       2835306.664
10 0 59686  39060.000000  0       4208738.262      -4528153.746       3238776.875
10 0 59686  39120.000000  0       3990173.671      -4428386.722       3628544.724
10 0 59686  39180.000000  0       3755814.423      -4308038.892       4002962.667
10 0 59686  39240.000000  0       3506824.968      -4167484.518       4360448.582
10 0 59686  39300.000000  0       3244427.360      -4007193.142       4699492.409
10 0 59686  39360.000000  0       2969895.198      -3827727.956       5018662.415
10 0 59686  39420.000000  0       2684547.428      -3629743.808       5316611.113
10 0 59686  39480.000000  0       2389741.968      -3413984.739       5592080.893
10 0 59686  39540.000000  0       2086869.160      -3181281.056       5843909.185
10 0 59686  39600.000000  0       1777345.160      -2932546.025       6071033.141
10 0 59686  39660.000000  0       1462605.339      -2668772.244       6272493.903
10 0 59686  39720.000000  0       1144097.644      -2391027.648       6447440.496
10 0 59686  39780.000000  0        823275.933      -2100451.153       6595133.258
10 0 59686  39840.000000  0        501593.370      -1798247.985       6714946.777
10 0 59686  39900.000000  0        180495.939      -1485684.729       6806372.424
10 0 59686  39960.000000  0       -138583.998      -1164084.012       6869020.472
10 0 59686  40020.000000  0       -454234.023       -834818.929       6902621.646
10 0 59686  40080.000000  0       -765067.830       -499307.288       6907028.289
10 0 59686  40140.000000  0      -1069731.289       -159005.559       6882215.061
10 0 59686  40200.000000  0      -1366908.316        184597.371       6828279.137
10 0 59686  40260.000000  0      -1655326.525        529986.646       6745439.947
10 0 59686  40320.000000  0      -1933762.670        875628.046       6634038.438
10 0 59686  40380.000000  0      -2201047.887       1219974.734       6494535.870
10 0 59686  40440.000000  0      -2456072.637       1561474.133       6327512.118
10 0 59686  40500.000000  0      -2697791.379       1898574.894       6133663.522
10 0 59686  40560.000000  0      -2925226.968       2229733.950       5913800.304
10 0 59686  40620.000000  0      -3137474.760       2553423.653       5668843.471
10 0 59686  40680.000000  0      -3333706.390       2868138.900       5399821.213
10 0 59686  40740.000000  0      -3513173.195       3172404.214       5107864.826
10 0 59686  40800.000000  0      -3675209.269       3464780.796       4794204.206
10 0 59686  40860.000000  0      -3819234.139       3743873.511       4460162.890
10 0 59686  40920.000000  0      -3944755.029       4008337.754       4107152.616
10 0 59686  40980.000000  0      -4051368.692       4256886.139       3736667.490
10 0 59686  41040.000000  0      -4138762.853       4488295.033       3350277.733
10 0 59686  41100.000000  0      -4206717.177       4701410.809       2949622.964
10 0 59686  41160.000000  0      -4255103.721       4895155.782       2536405.168
10 0 59686  41220.000000  0      -4283886.976       5068533.861       2112381.374
10 0 59686  41280.000000  0      -4293123.451       5220635.817       1679356.020
10 0 59686  41340.000000  0      -4282960.800       5350644.153       1239173.095
10 0 59686  41400.000000  0      -4253636.512       5457837.592        793708.071
10 0 59686  41460.000000  0      -4205476.169       5541595.125        344859.627
10 0 59686  41520.000000  0      -4138891.213       5601399.580       -105458.806
10 0 59686  41580.000000  0      -4054376.236       5636840.688       -555327.607
10 0 59686  41640.000000  0      -3952505.833       5647617.512      -1002829.556
10 0 59686  41700.000000  0      -3833931.158       5633540.315      -1446058.383
10 0 59686  41760.000000  0      -3699375.956       5594531.867      -1883127.224
10 0 59686  41820.000000  0      -3549632.280       5530628.284      -2312176.866
10 0 59686  41880.000000  0      -3385555.951       5441979.293      -2731383.970
10 0 59686  41940.000000  0      -3208061.698       5328847.809      -3138969.042
10 0 59686  42000.000000  0      -3018118.078       5191608.979      -3533204.105
10 0 59686  42060.000000  0      -2816742.179       5030748.715      -3912420.096
10 0 59686  42120.000000  0      -2604994.123       4846861.689      -4275013.969
10 0 59686  42180.000000  0      -2383971.397       4640648.786      -4619455.383
10 0 59686  42240.000000  0      -2154803.149       4412914.131      -4944292.957
10 0 59686  42300.000000  0      -1918644.407       4164561.717      -5248160.247
10 0 59686  42360.000000  0      -1676670.234       3896591.514      -5529781.342
10 0 59686  42420.000000  0      -1430069.859       3610095.141      -5787976.019
10 0 59686  42480.000000  0      -1180040.806       3306251.116      -6021664.448
10 0 59686  42540.000000  0       -927783.067       2986319.716      -6229871.406
10 0 59686  42600.000000  0       -674493.351       2651637.504      -6411729.985
10 0 59686  42660.000000  0       -421359.468       2303611.615      -6566484.813
10 0 59686  42720.000000  0       -169554.843       1943713.742      -6693494.892
10 0 59686  42780.000000  0         79766.797       1573473.821      -6792235.955
10 0 59686  42840.000000  0        325476.601       1194473.506      -6862302.375
10 0 59686  42900.000000  0        566475.646        808339.465      -6903408.591
10 0 59686  42960.000000  0        801699.772        416736.440      -6915390.116
10 0 59686  43020.000000  0       1030124.183         21360.085      -6898204.007
10 0 59686  43080.000000  0       1250767.794       -376070.297      -6851928.846
10 0 59686  43140.000000  0       1462697.331       -773819.065      -6776764.275
99
